{"type":"FeatureCollection","generated_at":"2026-08-05T08:28:49Z","source":"Luke: National Forest Inventory (NFI 13/14, 2020-2024), table 1.16","source_url":"https://www.luke.fi/en/statistics/forest-resources/results-of-the-national-forest-inventory","features":[{"type":"Feature","geometry":{"type":"Point","coordinates":[24.9,60.3]},"properties":{"id":"tree-species-uusimaa","name":"Uusimaa: spruce-dominant","category":"tree-species","region":"Uusimaa","description":"Pine 33.0%, Spruce 36.4%, Birch 19.3%, Other broadleaved 11.4% of 88 million m³ growing stock (NFI 13/14, 2020-2024)","features":["dominant-spruce"],"source":"Luke: National Forest Inventory (NFI 13/14, 2020-2024), table 1.16","source_url":"https://www.luke.fi/en/statistics/forest-resources/results-of-the-national-forest-inventory","species_million_m3":{"pine":29,"spruce":32,"birch":17,"other-broadleaved":10},"species_pct":{"pine":33.0,"spruce":36.4,"birch":19.3,"other-broadleaved":11.4},"total_million_m3":88,"dominant_species":"spruce"}},{"type":"Feature","geometry":{"type":"Point","coordinates":[22.3,60.45]},"properties":{"id":"tree-species-varsinais-suomi","name":"Varsinais-Suomi: pine-dominant","category":"tree-species","region":"Varsinais-Suomi","description":"Pine 50.0%, Spruce 31.9%, Birch 12.8%, Other broadleaved 5.3% of 94 million m³ growing stock (NFI 13/14, 2020-2024)","features":["dominant-pine"],"source":"Luke: National Forest Inventory (NFI 13/14, 2020-2024), table 1.16","source_url":"https://www.luke.fi/en/statistics/forest-resources/results-of-the-national-forest-inventory","species_million_m3":{"pine":47,"spruce":30,"birch":12,"other-broadleaved":5},"species_pct":{"pine":50.0,"spruce":31.9,"birch":12.8,"other-broadleaved":5.3},"total_million_m3":94,"dominant_species":"pine"}},{"type":"Feature","geometry":{"type":"Point","coordinates":[22.1,61.55]},"properties":{"id":"tree-species-satakunta","name":"Satakunta: pine-dominant","category":"tree-species","region":"Satakunta","description":"Pine 48.1%, Spruce 34.2%, Birch 13.9%, Other broadleaved 3.8% of 79 million m³ growing stock (NFI 13/14, 2020-2024)","features":["dominant-pine"],"source":"Luke: National Forest Inventory (NFI 13/14, 2020-2024), table 1.16","source_url":"https://www.luke.fi/en/statistics/forest-resources/results-of-the-national-forest-inventory","species_million_m3":{"pine":38,"spruce":27,"birch":11,"other-broadleaved":3},"species_pct":{"pine":48.1,"spruce":34.2,"birch":13.9,"other-broadleaved":3.8},"total_million_m3":79,"dominant_species":"pine"}},{"type":"Feature","geometry":{"type":"Point","coordinates":[24.45,60.85]},"properties":{"id":"tree-species-kanta-häme","name":"Kanta-Häme: spruce-dominant","category":"tree-species","region":"Kanta-Häme","description":"Pine 28.3%, Spruce 48.3%, Birch 16.7%, Other broadleaved 6.7% of 60 million m³ growing stock (NFI 13/14, 2020-2024)","features":["dominant-spruce"],"source":"Luke: National Forest Inventory (NFI 13/14, 2020-2024), table 1.16","source_url":"https://www.luke.fi/en/statistics/forest-resources/results-of-the-national-forest-inventory","species_million_m3":{"pine":17,"spruce":29,"birch":10,"other-broadleaved":4},"species_pct":{"pine":28.3,"spruce":48.3,"birch":16.7,"other-broadleaved":6.7},"total_million_m3":60,"dominant_species":"spruce"}},{"type":"Feature","geometry":{"type":"Point","coordinates":[23.85,61.65]},"properties":{"id":"tree-species-pirkanmaa","name":"Pirkanmaa: spruce-dominant","category":"tree-species","region":"Pirkanmaa","description":"Pine 36.7%, Spruce 42.4%, Birch 16.5%, Other broadleaved 4.4% of 158 million m³ growing stock (NFI 13/14, 2020-2024)","features":["dominant-spruce"],"source":"Luke: National Forest Inventory (NFI 13/14, 2020-2024), table 1.16","source_url":"https://www.luke.fi/en/statistics/forest-resources/results-of-the-national-forest-inventory","species_million_m3":{"pine":58,"spruce":67,"birch":26,"other-broadleaved":7},"species_pct":{"pine":36.7,"spruce":42.4,"birch":16.5,"other-broadleaved":4.4},"total_million_m3":158,"dominant_species":"spruce"}},{"type":"Feature","geometry":{"type":"Point","coordinates":[25.65,61.1]},"properties":{"id":"tree-species-päijät-häme","name":"Päijät-Häme: spruce-dominant","category":"tree-species","region":"Päijät-Häme","description":"Pine 28.4%, Spruce 49.3%, Birch 16.4%, Other broadleaved 6.0% of 67 million m³ growing stock (NFI 13/14, 2020-2024)","features":["dominant-spruce"],"source":"Luke: National Forest Inventory (NFI 13/14, 2020-2024), table 1.16","source_url":"https://www.luke.fi/en/statistics/forest-resources/results-of-the-national-forest-inventory","species_million_m3":{"pine":19,"spruce":33,"birch":11,"other-broadleaved":4},"species_pct":{"pine":28.4,"spruce":49.3,"birch":16.4,"other-broadleaved":6.0},"total_million_m3":67,"dominant_species":"spruce"}},{"type":"Feature","geometry":{"type":"Point","coordinates":[26.7,60.7]},"properties":{"id":"tree-species-kymenlaakso","name":"Kymenlaakso: pine-dominant","category":"tree-species","region":"Kymenlaakso","description":"Pine 47.9%, Spruce 29.2%, Birch 16.7%, Other broadleaved 6.2% of 48 million m³ growing stock (NFI 13/14, 2020-2024)","features":["dominant-pine"],"source":"Luke: National Forest Inventory (NFI 13/14, 2020-2024), table 1.16","source_url":"https://www.luke.fi/en/statistics/forest-resources/results-of-the-national-forest-inventory","species_million_m3":{"pine":23,"spruce":14,"birch":8,"other-broadleaved":3},"species_pct":{"pine":47.9,"spruce":29.2,"birch":16.7,"other-broadleaved":6.2},"total_million_m3":48,"dominant_species":"pine"}},{"type":"Feature","geometry":{"type":"Point","coordinates":[28.2,61.05]},"properties":{"id":"tree-species-etelä-karjala","name":"Etelä-Karjala: pine-dominant","category":"tree-species","region":"Etelä-Karjala","description":"Pine 43.5%, Spruce 32.3%, Birch 17.7%, Other broadleaved 6.5% of 62 million m³ growing stock (NFI 13/14, 2020-2024)","features":["dominant-pine"],"source":"Luke: National Forest Inventory (NFI 13/14, 2020-2024), table 1.16","source_url":"https://www.luke.fi/en/statistics/forest-resources/results-of-the-national-forest-inventory","species_million_m3":{"pine":27,"spruce":20,"birch":11,"other-broadleaved":4},"species_pct":{"pine":43.5,"spruce":32.3,"birch":17.7,"other-broadleaved":6.5},"total_million_m3":62,"dominant_species":"pine"}},{"type":"Feature","geometry":{"type":"Point","coordinates":[27.35,61.85]},"properties":{"id":"tree-species-etelä-savo","name":"Etelä-Savo: pine-dominant","category":"tree-species","region":"Etelä-Savo","description":"Pine 41.3%, Spruce 35.9%, Birch 18.6%, Other broadleaved 4.2% of 167 million m³ growing stock (NFI 13/14, 2020-2024)","features":["dominant-pine"],"source":"Luke: National Forest Inventory (NFI 13/14, 2020-2024), table 1.16","source_url":"https://www.luke.fi/en/statistics/forest-resources/results-of-the-national-forest-inventory","species_million_m3":{"pine":69,"spruce":60,"birch":31,"other-broadleaved":7},"species_pct":{"pine":41.3,"spruce":35.9,"birch":18.6,"other-broadleaved":4.2},"total_million_m3":167,"dominant_species":"pine"}},{"type":"Feature","geometry":{"type":"Point","coordinates":[27.5,63.1]},"properties":{"id":"tree-species-pohjois-savo","name":"Pohjois-Savo: spruce-dominant","category":"tree-species","region":"Pohjois-Savo","description":"Pine 35.3%, Spruce 42.2%, Birch 18.6%, Other broadleaved 3.9% of 204 million m³ growing stock (NFI 13/14, 2020-2024)","features":["dominant-spruce"],"source":"Luke: National Forest Inventory (NFI 13/14, 2020-2024), table 1.16","source_url":"https://www.luke.fi/en/statistics/forest-resources/results-of-the-national-forest-inventory","species_million_m3":{"pine":72,"spruce":86,"birch":38,"other-broadleaved":8},"species_pct":{"pine":35.3,"spruce":42.2,"birch":18.6,"other-broadleaved":3.9},"total_million_m3":204,"dominant_species":"spruce"}},{"type":"Feature","geometry":{"type":"Point","coordinates":[30.0,62.85]},"properties":{"id":"tree-species-pohjois-karjala","name":"Pohjois-Karjala: pine-dominant","category":"tree-species","region":"Pohjois-Karjala","description":"Pine 47.2%, Spruce 31.1%, Birch 18.9%, Other broadleaved 2.8% of 212 million m³ growing stock (NFI 13/14, 2020-2024)","features":["dominant-pine"],"source":"Luke: National Forest Inventory (NFI 13/14, 2020-2024), table 1.16","source_url":"https://www.luke.fi/en/statistics/forest-resources/results-of-the-national-forest-inventory","species_million_m3":{"pine":100,"spruce":66,"birch":40,"other-broadleaved":6},"species_pct":{"pine":47.2,"spruce":31.1,"birch":18.9,"other-broadleaved":2.8},"total_million_m3":212,"dominant_species":"pine"}},{"type":"Feature","geometry":{"type":"Point","coordinates":[25.65,62.5]},"properties":{"id":"tree-species-keski-suomi","name":"Keski-Suomi: pine-dominant","category":"tree-species","region":"Keski-Suomi","description":"Pine 46.6%, Spruce 34.7%, Birch 15.0%, Other broadleaved 3.6% of 193 million m³ growing stock (NFI 13/14, 2020-2024)","features":["dominant-pine"],"source":"Luke: National Forest Inventory (NFI 13/14, 2020-2024), table 1.16","source_url":"https://www.luke.fi/en/statistics/forest-resources/results-of-the-national-forest-inventory","species_million_m3":{"pine":90,"spruce":67,"birch":29,"other-broadleaved":7},"species_pct":{"pine":46.6,"spruce":34.7,"birch":15.0,"other-broadleaved":3.6},"total_million_m3":193,"dominant_species":"pine"}},{"type":"Feature","geometry":{"type":"Point","coordinates":[22.85,62.85]},"properties":{"id":"tree-species-etelä-pohjanmaa","name":"Etelä-Pohjanmaa: pine-dominant","category":"tree-species","region":"Etelä-Pohjanmaa","description":"Pine 63.0%, Spruce 21.0%, Birch 13.4%, Other broadleaved 2.5% of 119 million m³ growing stock (NFI 13/14, 2020-2024)","features":["dominant-pine"],"source":"Luke: National Forest Inventory (NFI 13/14, 2020-2024), table 1.16","source_url":"https://www.luke.fi/en/statistics/forest-resources/results-of-the-national-forest-inventory","species_million_m3":{"pine":75,"spruce":25,"birch":16,"other-broadleaved":3},"species_pct":{"pine":63.0,"spruce":21.0,"birch":13.4,"other-broadleaved":2.5},"total_million_m3":119,"dominant_species":"pine"}},{"type":"Feature","geometry":{"type":"Point","coordinates":[22.2,63.2]},"properties":{"id":"tree-species-pohjanmaa","name":"Pohjanmaa: pine-dominant","category":"tree-species","region":"Pohjanmaa","description":"Pine 45.9%, Spruce 32.4%, Birch 17.6%, Other broadleaved 4.1% of 74 million m³ growing stock (NFI 13/14, 2020-2024)","features":["dominant-pine"],"source":"Luke: National Forest Inventory (NFI 13/14, 2020-2024), table 1.16","source_url":"https://www.luke.fi/en/statistics/forest-resources/results-of-the-national-forest-inventory","species_million_m3":{"pine":34,"spruce":24,"birch":13,"other-broadleaved":3},"species_pct":{"pine":45.9,"spruce":32.4,"birch":17.6,"other-broadleaved":4.1},"total_million_m3":74,"dominant_species":"pine"}},{"type":"Feature","geometry":{"type":"Point","coordinates":[23.55,63.85]},"properties":{"id":"tree-species-keski-pohjanmaa","name":"Keski-Pohjanmaa: pine-dominant","category":"tree-species","region":"Keski-Pohjanmaa","description":"Pine 61.5%, Spruce 20.5%, Birch 15.4%, Other broadleaved 2.6% of 39 million m³ growing stock (NFI 13/14, 2020-2024)","features":["dominant-pine"],"source":"Luke: National Forest Inventory (NFI 13/14, 2020-2024), table 1.16","source_url":"https://www.luke.fi/en/statistics/forest-resources/results-of-the-national-forest-inventory","species_million_m3":{"pine":24,"spruce":8,"birch":6,"other-broadleaved":1},"species_pct":{"pine":61.5,"spruce":20.5,"birch":15.4,"other-broadleaved":2.6},"total_million_m3":39,"dominant_species":"pine"}},{"type":"Feature","geometry":{"type":"Point","coordinates":[25.4,65.0]},"properties":{"id":"tree-species-pohjois-pohjanmaa","name":"Pohjois-Pohjanmaa: pine-dominant","category":"tree-species","region":"Pohjois-Pohjanmaa","description":"Pine 61.4%, Spruce 20.2%, Birch 16.6%, Other broadleaved 1.8% of 277 million m³ growing stock (NFI 13/14, 2020-2024)","features":["dominant-pine"],"source":"Luke: National Forest Inventory (NFI 13/14, 2020-2024), table 1.16","source_url":"https://www.luke.fi/en/statistics/forest-resources/results-of-the-national-forest-inventory","species_million_m3":{"pine":170,"spruce":56,"birch":46,"other-broadleaved":5},"species_pct":{"pine":61.4,"spruce":20.2,"birch":16.6,"other-broadleaved":1.8},"total_million_m3":277,"dominant_species":"pine"}},{"type":"Feature","geometry":{"type":"Point","coordinates":[28.65,64.2]},"properties":{"id":"tree-species-kainuu","name":"Kainuu: pine-dominant","category":"tree-species","region":"Kainuu","description":"Pine 59.7%, Spruce 23.3%, Birch 15.3%, Other broadleaved 1.7% of 176 million m³ growing stock (NFI 13/14, 2020-2024)","features":["dominant-pine"],"source":"Luke: National Forest Inventory (NFI 13/14, 2020-2024), table 1.16","source_url":"https://www.luke.fi/en/statistics/forest-resources/results-of-the-national-forest-inventory","species_million_m3":{"pine":105,"spruce":41,"birch":27,"other-broadleaved":3},"species_pct":{"pine":59.7,"spruce":23.3,"birch":15.3,"other-broadleaved":1.7},"total_million_m3":176,"dominant_species":"pine"}},{"type":"Feature","geometry":{"type":"Point","coordinates":[26.5,67.5]},"properties":{"id":"tree-species-lappi","name":"Lappi: pine-dominant","category":"tree-species","region":"Lappi","description":"Pine 65.1%, Spruce 18.0%, Birch 16.0%, Other broadleaved 0.9% of 455 million m³ growing stock (NFI 13/14, 2020-2024)","features":["dominant-pine"],"source":"Luke: National Forest Inventory (NFI 13/14, 2020-2024), table 1.16","source_url":"https://www.luke.fi/en/statistics/forest-resources/results-of-the-national-forest-inventory","species_million_m3":{"pine":296,"spruce":82,"birch":73,"other-broadleaved":4},"species_pct":{"pine":65.1,"spruce":18.0,"birch":16.0,"other-broadleaved":0.9},"total_million_m3":455,"dominant_species":"pine"}},{"type":"Feature","geometry":{"type":"Point","coordinates":[20.0,60.2]},"properties":{"id":"tree-species-ahvenanmaa","name":"Ahvenanmaa: pine-dominant","category":"tree-species","region":"Ahvenanmaa","description":"Pine 70.0%, Spruce 10.0%, Birch 10.0%, Other broadleaved 10.0% of 10 million m³ growing stock (NFI 13/14, 2020-2024)","features":["dominant-pine"],"source":"Luke: National Forest Inventory (NFI 13/14, 2020-2024), table 1.16","source_url":"https://www.luke.fi/en/statistics/forest-resources/results-of-the-national-forest-inventory","species_million_m3":{"pine":7,"spruce":1,"birch":1,"other-broadleaved":1},"species_pct":{"pine":70.0,"spruce":10.0,"birch":10.0,"other-broadleaved":10.0},"total_million_m3":10,"dominant_species":"pine"}}]}