{
  "type": "FeatureCollection",
  "generated_at": "2026-05-22T00:00:00Z",
  "source": "Curated research, sources cited per feature",
  "source_url": "",
  "_note": "Hand-curated from saunas-to-enrich.csv. Replaces the Google Sheet pipeline output for these 40 entries. Coordinates verified against retkikartta.fi, luontoon.fi/eraluvat.fi (Metsahallitus), laavu.org, uuvi.fi, outdooractive.com and saunalista.fi. saunas-to-enrich rows 1/2/4/6/16/22/25/49 deduplicated; rows 23/34/48 dropped (23 mapped to row 50 anchor; 34/48 unverifiable).",
  "features": [
    {"type":"Feature","geometry":{"type":"Point","coordinates":[28.72310,68.03290]},"properties":{"id":"sauna-ukk-harkavaaran-autiotupa","name":"Härkävaaran autiotupa","category":"sauna","region":"Lappi","description":"UKK NP open hut with shared fee-based sauna, Savukoski","features":["has-sauna"],"confidence":"high","source":"nuotiopaikat.fi","source_url":"https://www.nuotiopaikat.fi/listing/harkavaaran-autiotupa/"}},
    {"type":"Feature","geometry":{"type":"Point","coordinates":[28.02331,68.20977]},"properties":{"id":"sauna-ukk-luirojarvi","name":"Luirojärvi","category":"sauna","region":"Lappi","description":"Luirojärvi autio/varaustupa with sauna at foot of Sokosti, UKK NP","features":["has-sauna"],"confidence":"high","source":"Metsähallitus / Luontoon","source_url":"https://www.luontoon.fi/luirojarvivaraustupa"}},
    {"type":"Feature","geometry":{"type":"Point","coordinates":[25.61070,68.79220]},"properties":{"id":"sauna-lemmenjoki-vaskojoki","name":"Vaskojoki","category":"sauna","region":"Lappi","description":"Lemmenjoki NP open hut with sauna at mouth of Puordnajoki","features":["has-sauna"],"confidence":"high","source":"autiotuvat.com","source_url":"https://autiotuvat.com/autiotupa/vaskojoki"}},
    {"type":"Feature","geometry":{"type":"Point","coordinates":[25.99260,68.70090]},"properties":{"id":"sauna-lemmenjoki-harkakoski","name":"Härkäkoski","category":"sauna","region":"Lappi","description":"Lemmenjoki NP rental hut with sauna on west bank of Lemmenjoki","features":["has-sauna"],"confidence":"high","source":"autiotuvat.com","source_url":"https://autiotuvat.com/autiotupa/harkakoski"}},
    {"type":"Feature","geometry":{"type":"Point","coordinates":[25.77908,68.66977]},"properties":{"id":"sauna-lemmenjoki-morgamo","name":"Morgamojan Kultala","category":"sauna","region":"Lappi","description":"Lemmenjoki NP autio + rental hut with sauna in Morgamoja gorge","features":["has-sauna"],"confidence":"high","source":"fi.wikipedia.org","source_url":"https://fi.wikipedia.org/wiki/Morgamoja"}},
    {"type":"Feature","geometry":{"type":"Point","coordinates":[29.91862,62.98985]},"properties":{"id":"sauna-koli-kiviniemi-retkisauna","name":"Kiviniemen retkisauna","category":"sauna","region":"Pohjois-Karjala","description":"Free hikers sauna at Herajärven kierros trailhead, Kontiolahti","features":["has-sauna"],"confidence":"high","source":"playkontiolahti.fi","source_url":"https://playkontiolahti.fi/kiviniemen-retkisauna/"}},
    {"type":"Feature","geometry":{"type":"Point","coordinates":[25.10035,61.19531]},"properties":{"id":"sauna-evo-onnin-maja","name":"Onnin maja","category":"sauna","region":"Päijät-Häme","description":"Metsähallitus rental cabin with sauna on Alinen Rautjärvi, Evo retkeilyalue","features":["has-sauna"],"confidence":"medium","source":"fi.wikipedia.org","source_url":"https://fi.wikipedia.org/wiki/Alinen_Rautj%C3%A4rvi"}},
    {"type":"Feature","geometry":{"type":"Point","coordinates":[22.93562,60.20944]},"properties":{"id":"sauna-teijo-matildanjarvi","name":"Matildanjärven rantasauna","category":"sauna","region":"Varsinais-Suomi","description":"Lakeshore rental sauna at Teijo NP nature centre, Mathildedal","features":["has-sauna"],"confidence":"high","source":"visitsalo.fi","source_url":"https://kohteet.visitsalo.fi/en/matildanjarvi-lakeshore-sauna-teijo-nature-centre/"}},
    {"type":"Feature","geometry":{"type":"Point","coordinates":[22.38869,60.74365]},"properties":{"id":"sauna-kurjenrahka-rantapiha","name":"Savojärven Rantapiha","category":"sauna","region":"Varsinais-Suomi","description":"Lakeshore wood sauna on Savojärvi, Kurjenrahka NP border, Nousiainen","features":["has-sauna"],"confidence":"high","source":"kuhankuono.fi","source_url":"https://kuhankuono.fi/palveluntarjoajat/rantapiha/"}},
    {"type":"Feature","geometry":{"type":"Point","coordinates":[28.56330,68.12613]},"properties":{"id":"sauna-ukk-tahvontupa","name":"Tahvontupa","category":"sauna","region":"Lappi","description":"UKK NP reservable hut with fee-based sauna, west bank of Tyyrojoki","features":["has-sauna"],"confidence":"high","source":"Eräluvat","source_url":"https://www.eraluvat.fi/kohteet/tahvontupa-1150"}},
    {"type":"Feature","geometry":{"type":"Point","coordinates":[30.89047,63.24297]},"properties":{"id":"sauna-karhunpolku-pitkajarvi","name":"Pitkäjärven autiotupa","category":"sauna","region":"Pohjois-Karjala","description":"Karhunpolku trail open hut + rental hut + lakeshore sauna, Lieksa","features":["has-sauna"],"confidence":"high","source":"laavu.org","source_url":"https://www.laavu.org/autiotuvat/kohde.php?id=341"}},
    {"type":"Feature","geometry":{"type":"Point","coordinates":[27.54210,65.68027]},"properties":{"id":"sauna-syote-ahmatupa","name":"Ahmatupa","category":"sauna","region":"Pohjois-Pohjanmaa","description":"Syöte NP open hut with yard sauna on Ahmavaara, Pudasjärvi","features":["has-sauna"],"confidence":"medium","source":"nuotiopaikat.fi","source_url":"https://www.nuotiopaikat.fi/listing/ahmatupa/"}},
    {"type":"Feature","geometry":{"type":"Point","coordinates":[29.30912,66.37215]},"properties":{"id":"sauna-oulanka-leirintaalue","name":"Oulangan leirintäalue","category":"sauna","region":"Pohjois-Pohjanmaa","description":"Oulanka NP campsite, Kuusamo","features":["has-sauna"],"confidence":"high","source":"oulankacamping.fi","source_url":"https://oulankacamping.fi/"}},
    {"type":"Feature","geometry":{"type":"Point","coordinates":[29.41114,66.26351]},"properties":{"id":"sauna-oulanka-basecamp","name":"Basecamp Oulanka","category":"sauna","region":"Pohjois-Pohjanmaa","description":"Wilderness hotel at Oulanka NP south entrance (Juuma), Kuusamo","features":["has-sauna"],"confidence":"high","source":"saunalista.fi","source_url":"https://saunalista.fi/en/saunas/29"}},
    {"type":"Feature","geometry":{"type":"Point","coordinates":[29.36958,66.45510]},"properties":{"id":"sauna-oulanka-kerojarvi","name":"Kerojärven kämppä","category":"sauna","region":"Lappi","description":"Oulanka NP open hut with sauna on Keroharju trail, Salla","features":["has-sauna"],"confidence":"high","source":"outdooractive.com","source_url":"https://www.outdooractive.com/en/hut/lapland/kerojaervi-open-wilderness-hut-oulanka-national-park/45428523/"}},
    {"type":"Feature","geometry":{"type":"Point","coordinates":[24.64313,63.37374]},"properties":{"id":"sauna-salamajarvi-valvatti","name":"Valvatin autiotupa","category":"sauna","region":"Keski-Pohjanmaa","description":"Salamajärvi NP forest ranger cabin with sauna on Hirvaan kierros, Perho","features":["has-sauna"],"confidence":"high","source":"outdooractive.fi","source_url":"https://www.outdooractive.fi/fi/hut/keski-pohjanmaa/salamajaerven-kansallispuisto-valvatin-autiotupa-perho/34446786/"}},
    {"type":"Feature","geometry":{"type":"Point","coordinates":[24.823269,63.235813]},"properties":{"id":"sauna-salamajarvi-koirasalmi","name":"Koirasalmi luontotupa","category":"sauna","region":"Keski-Pohjanmaa","description":"Salamajärvi NP visitor centre and trailhead, anchor point of Peuran polku","features":["has-sauna"],"confidence":"high","source":"koirasalmi.com","source_url":"https://koirasalmi.com/index.php/ota-yhteytta/kulkuyhteydet-ja-kartta/"}},
    {"type":"Feature","geometry":{"type":"Point","coordinates":[23.80037,62.02890]},"properties":{"id":"sauna-helvetinjarvi-hiedanmaja","name":"Hiedanmaja","category":"sauna","region":"Pirkanmaa","description":"Helvetinjärvi NP rental cottage with wood sauna on Haukkajärvi, Ruovesi","features":["has-sauna"],"confidence":"high","source":"Eräluvat","source_url":"https://www.eraluvat.fi/kohteet/hiedanmaja-1088"}},
    {"type":"Feature","geometry":{"type":"Point","coordinates":[24.19587,65.61524]},"properties":{"id":"sauna-perameri-selkasarvi","name":"Selkä-Sarven vartiotupa","category":"sauna","region":"Pohjois-Pohjanmaa","description":"Former Coast Guard hut with sauna on Selkä-Sarvi island, Perämeri NP","features":["has-sauna"],"confidence":"high","source":"Eräluvat","source_url":"https://www.eraluvat.fi/kohteet/selka-sarven-vartiotupa-1227"}},
    {"type":"Feature","geometry":{"type":"Point","coordinates":[25.11449,60.31252]},"properties":{"id":"sauna-vantaa-kuusijarvi","name":"Kuusijärven savusauna","category":"sauna","region":"Uusimaa","description":"Public smoke saunas heated daily, Vantaa","features":["has-sauna"],"confidence":"high","source":"saunalista.fi","source_url":"https://saunalista.fi/en/saunas/27"}},
    {"type":"Feature","geometry":{"type":"Point","coordinates":[24.37580,62.69520]},"properties":{"id":"sauna-soini-arpaiskamppa","name":"Arpaiskämppä","category":"sauna","region":"Etelä-Pohjanmaa","description":"Wilderness hut with riverside sauna on Arpainen trail, Soini","features":["has-sauna"],"confidence":"medium","source":"arpainen.fi","source_url":"https://www.arpainen.fi/en/services/resting-places/15-arpaiskaemppae"}},
    {"type":"Feature","geometry":{"type":"Point","coordinates":[27.46115,68.34664]},"properties":{"id":"sauna-saariselka-kuurakaltio","name":"Kuurakaltio (Kiilopään savusauna)","category":"sauna","region":"Lappi","description":"Smoke sauna and ice-swimming spot at Suomen Latu Kiilopää fell centre, Saariselkä","features":["has-sauna"],"confidence":"high","source":"kiilopaa.fi","source_url":"https://www.kiilopaa.fi/en/kuurakaltio-savusauna-ja-uintipaikka"}},
    {"type":"Feature","geometry":{"type":"Point","coordinates":[28.45140,68.25060]},"properties":{"id":"sauna-ukk-anterinmukka","name":"Anterinmukka autiotupa","category":"sauna","region":"Lappi","description":"UKK NP open hut with sauna on Anterijoki river, Sodankylä","features":["has-sauna"],"confidence":"high","source":"Metsähallitus / Luontoon","source_url":"https://www.luontoon.fi/fi/kohteet/urho-kekkosen-kansallispuisto/palvelu/anterinmukka-autiotupa-autiotupa-2154"}},
    {"type":"Feature","geometry":{"type":"Point","coordinates":[29.22457,67.91552]},"properties":{"id":"sauna-ukk-karhuoja","name":"Karhuojan autiotupa","category":"sauna","region":"Lappi","description":"UKK NP open hut with fee-based sauna, Savukoski","features":["has-sauna"],"confidence":"high","source":"laavu.org","source_url":"https://www.laavu.org/autiotuvat/kohde.php?id=125"}},
    {"type":"Feature","geometry":{"type":"Point","coordinates":[30.72902,63.13125]},"properties":{"id":"sauna-patvinsuo-suomun-rantasauna","name":"Suomun rantasauna","category":"sauna","region":"Pohjois-Karjala","description":"Lakeside sauna at Patvinsuo NP information hut, Suomujärvi, Lieksa","features":["has-sauna"],"confidence":"high","source":"outdooractive.com","source_url":"https://www.outdooractive.com/en/poi/north-karelia/suomu-nature-information-hut/59631126/"}},
    {"type":"Feature","geometry":{"type":"Point","coordinates":[26.85255,67.12429]},"properties":{"id":"sauna-pyha-luosto-yrjola","name":"Yrjölän varaustupa","category":"sauna","region":"Lappi","description":"Pyhä-Luosto NP rental hut with sauna, Luosto side","features":["has-sauna"],"confidence":"high","source":"outdooractive.com","source_url":"https://www.outdooractive.com/en/hut/pyhae-luosto-national-park/yrjoelae-rental-hut-in-pyhae-luosto-national-park/37943687/"}},
    {"type":"Feature","geometry":{"type":"Point","coordinates":[26.84450,61.29017]},"properties":{"id":"sauna-mantyharju-matkoslammi","name":"Matkoslammen laavu","category":"sauna","region":"Etelä-Savo","description":"Hikers laavu with adjacent round sauna on Mäntyharju-Repovesi trail","features":["has-sauna"],"confidence":"medium","source":"visitrepovesi.fi","source_url":"https://www.visitrepovesi.fi/kohteet/show/736"}},
    {"type":"Feature","geometry":{"type":"Point","coordinates":[29.06172,68.03044]},"properties":{"id":"sauna-ukk-vieriharju","name":"Vieriharjun autiotupa","category":"sauna","region":"Lappi","description":"UKK NP open hut with shared sauna on Kemihaara-Korvatunturi trail","features":["has-sauna"],"confidence":"high","source":"nuotiopaikat.fi","source_url":"https://www.nuotiopaikat.fi/listing/vieriharjun-autiotupa/"}},
    {"type":"Feature","geometry":{"type":"Point","coordinates":[23.35420,59.86576]},"properties":{"id":"sauna-tammisaari-byxholmen","name":"Byxholmen","category":"sauna","region":"Uusimaa","description":"Self-service year-round island sauna, Tammisaari archipelago, Raasepori","features":["has-sauna"],"confidence":"high","source":"saunalista.fi","source_url":"https://saunalista.fi/en/saunas/53"}},
    {"type":"Feature","geometry":{"type":"Point","coordinates":[24.74873,60.09441]},"properties":{"id":"sauna-espoo-gasgrund","name":"Gåsgrund","category":"sauna","region":"Uusimaa","description":"Self-service sauna on camping island, Espoo outer archipelago","features":["has-sauna"],"confidence":"high","source":"uuvi.fi","source_url":"https://uuvi.fi/en/area/gasgrund/"}},
    {"type":"Feature","geometry":{"type":"Point","coordinates":[23.94421,68.21762]},"properties":{"id":"sauna-pallas-yllas-hannukuru","name":"Hannukurun sauna","category":"sauna","region":"Lappi","description":"Lakeshore sauna at Hannukuru hut on Hetta-Pallas trail, Pallas-Yllästunturi NP","features":["has-sauna"],"confidence":"high","source":"outdooractive.com","source_url":"https://www.outdooractive.com/en/poi/lapland/hannukuru-sauna/37649883/"}},
    {"type":"Feature","geometry":{"type":"Point","coordinates":[27.80944,62.77163]},"properties":{"id":"sauna-kallavesi-hauto-koisti","name":"Hauto-Koisti sauna","category":"sauna","region":"Pohjois-Savo","description":"Old fishing farmhouse sauna on Kallavesi island, Kuopio National Urban Park","features":["has-sauna"],"confidence":"high","source":"veneilysaimaa.com","source_url":"https://veneilysaimaa.com/satama/hautakoisti/"}},
    {"type":"Feature","geometry":{"type":"Point","coordinates":[29.65321,64.25303]},"properties":{"id":"sauna-lentua-lehtosaari","name":"Lehtosaari sauna","category":"sauna","region":"Kainuu","description":"Small lakeshore sauna at Lehtosaari open hut, Lentua nature reserve, Kuhmo","features":["has-sauna"],"confidence":"high","source":"Metsähallitus / Luontoon","source_url":"https://www.luontoon.fi/fi/palvelut/lehtosaari-autiotupa-tupa-tai-kamppa-15113"}},
    {"type":"Feature","geometry":{"type":"Point","coordinates":[25.93145,64.93848]},"properties":{"id":"sauna-oulujoki-kallioselka","name":"Kallioselkä autiotupa","category":"sauna","region":"Pohjois-Pohjanmaa","description":"Open hut with sauna on Oulujoki Tar Route","features":["has-sauna"],"confidence":"high","source":"outdooractive.com","source_url":"https://www.outdooractive.com/en/hut/oulu/kallioselkae-open-wilderness-hut/61032757/"}},
    {"type":"Feature","geometry":{"type":"Point","coordinates":[26.34868,64.88866]},"properties":{"id":"sauna-oulujoki-koivujoen-pitkakoski","name":"Koivujoen Pitkäkoski","category":"sauna","region":"Pohjois-Pohjanmaa","description":"Open hut with sauna on Koivujoki tributary","features":["has-sauna"],"confidence":"high","source":"laavu.org","source_url":"https://www.laavu.org/autiotuvat/kohde.php?id=607"}},
    {"type":"Feature","geometry":{"type":"Point","coordinates":[24.92534,68.37389]},"properties":{"id":"sauna-kasivarsi-korsatupa","name":"Korsatupa","category":"sauna","region":"Lappi","description":"Käsivarsi wilderness open hut with sauna, near Korsajärvi","features":["has-sauna"],"confidence":"high","source":"leiripaikat.fi","source_url":"https://leiripaikat.fi/camp/korsatupa-autiotupa/"}},
    {"type":"Feature","geometry":{"type":"Point","coordinates":[29.91680,63.73650]},"properties":{"id":"sauna-karhunpolku-otroskoski","name":"Otroskosken kämppä","category":"sauna","region":"Pohjois-Karjala","description":"Lieksa city open hut with sauna at Karhunpolku km 127.3, Jongunjoki","features":["has-sauna"],"confidence":"high","source":"Lusto / Finna","source_url":"https://www.finna.fi/Record/lusto.knp-160494"}},
    {"type":"Feature","geometry":{"type":"Point","coordinates":[25.30500,60.16333]},"properties":{"id":"sauna-sipoo-tallholmen","name":"Tallholmen","category":"sauna","region":"Uusimaa","description":"Free public island sauna in Sipoonselkä archipelago","features":["has-sauna"],"confidence":"high","source":"uuvi.fi","source_url":"https://uuvi.fi/en/area/tallholmen-sipoo/"}},
    {"type":"Feature","geometry":{"type":"Point","coordinates":[24.42510,67.64090]},"properties":{"id":"sauna-kittila-tammitupa","name":"Tammitupa","category":"sauna","region":"Lappi","description":"Metsähallitus open hut with sauna, Kittilä","features":["has-sauna"],"confidence":"high","source":"autiotuvat.com","source_url":"https://autiotuvat.com/autiotupa/tammitupa"}},
    {"type":"Feature","geometry":{"type":"Point","coordinates":[24.67607,63.27713]},"properties":{"id":"sauna-salamajarvi-sysilampi","name":"Sysilampi autiotupa","category":"sauna","region":"Keski-Pohjanmaa","description":"Salamajärvi NP rental cabins with shared sauna on Hirvaan kierros","features":["has-sauna"],"confidence":"high","source":"Metsähallitus / Luontoon","source_url":"https://www.luontoon.fi/fi/palvelut/sysilampi-autiotupavuokratupa-tupa-tai-kamppa-651"}}
  ]
}
